NORAD_CAT_ID,OBJECT_NAME,OBJECT_TYPE,EPOCH,MEAN_MOTION,ECCENTRICITY,INCLINATION,RA_OF_ASC_NODE,ARG_OF_PERICENTER,MEAN_ANOMALY,BSTAR,MEAN_MOTION_DOT,MEAN_MOTION_DDOT,TLE_LINE0,TLE_LINE1,TLE_LINE2,SEMIMAJOR_AXIS,PERIOD,APOGEE,PERIGEE,DECAYED
53802.0,STARLINK-4726,PAYLOAD,2022-10-11 14:00:01,15.73147905,0.0001175,53.2172,116.027,103.0687,214.2764,0.0006723,0.00094589,0.0,0 STARLINK-4726,1 53802U 22111AF  22284.58334491  .00094589  00000-0  67230-3 0  9996,2 53802  53.2172 116.0270 0001175 103.0687 214.2764 15.73147905  4727,6728.044,91.536,350.699,349.11800000000005,0.0
53802.0,STARLINK-4726,PAYLOAD,2022-10-11 22:00:00,15.73155022,0.0001226,53.2139,114.3767,86.1282,320.0862,0.00084242,0.00119067,0.0,0 STARLINK-4726,1 53802U 22111AF  22284.91667824  .00119067  00000-0  84242-3 0  9993,2 53802  53.2139 114.3767 0001226  86.1282 320.0862 15.73155022  1306,6728.023,91.536,350.713,349.064,0.0
53802.0,STARLINK-4726,PAYLOAD,2022-10-12 14:00:01,15.7326586,0.0001036,53.2156,111.0767,98.8513,125.2643,-0.0008746,-0.0012194,0.0,0 STARLINK-4726,1 53802U 22111AF  22285.58334491 -.00121940  00000-0 -87460-3 0  9998,2 53802  53.2156 111.0767 0001036  98.8513 125.2643 15.73265860  4885,6727.706999999999,91.529,350.269,348.875,0.0
53802.0,STARLINK-4726,PAYLOAD,2022-10-12 22:00:00,15.73181176,0.0001008,53.217,109.4308,82.1375,230.9299,0.0002562,0.00035459,0.0,0 STARLINK-4726,1 53802U 22111AF  22285.91667824  .00035459  00000-0  25620-3 0  9991,2 53802  53.2170 109.4308 0001008  82.1375 230.9299 15.73181176  1306,6727.949000000001,91.534,350.492,349.136,0.0
53802.0,STARLINK-4726,PAYLOAD,2022-10-13 14:00:01,15.7321035,0.0001409,53.2173,106.1299,93.4257,37.497,-7.373300000000001e-05,-0.00010959,0.0,0 STARLINK-4726,1 53802U 22111AF  22286.58334491 -.00010959  00000-0 -73733-4 0  9995,2 53802  53.2173 106.1299 0001409  93.4257  37.4970 15.73210350  1304,6727.866,91.533,350.67900000000014,348.783,0.0
53802.0,STARLINK-4726,PAYLOAD,2022-10-13 20:00:01,15.73306184,0.0001208,53.2171,104.8941,77.351,30.2861,-0.0011097,-0.00154234,0.0,0 STARLINK-4726,1 53802U 22111AF  22286.83335648 -.00154234  00000-0 -11097-2 0  9996,2 53802  53.2171 104.8941 0001208  77.3510  30.2861 15.73306184  5070,6727.592,91.527,350.27,348.645,0.0
53802.0,STARLINK-4726,PAYLOAD,2022-10-13 22:00:00,15.73224164,0.0001262,53.2172,104.4823,75.5442,144.3048,-0.00022814,-0.00032547,0.0,0 STARLINK-4726,1 53802U 22111AF  22286.91667824 -.00032547  00000-0 -22814-3 0  9991,2 53802  53.2172 104.4823 0001262  75.5442 144.3048 15.73224164  1303,6727.826,91.532,350.54,348.842,0.0
53802.0,STARLINK-4726,PAYLOAD,2022-10-14 08:00:01,15.73225926,0.0001193999999999,53.2158,102.4173,84.2872,336.7989,-0.00028017,-0.00039797,0.0,0 STARLINK-4726,1 53802U 22111AF  22287.33335648 -.00039797  00000-0 -28017-3 0  9999,2 53802  53.2158 102.4173 0001194  84.2872 336.7989 15.73225926  5156,6727.821,91.532,350.49,348.8830000000001,0.0
53802.0,STARLINK-4726,PAYLOAD,2022-10-14 14:00:01,15.73203846,0.00013,53.2168,101.1811,86.9166,310.8118,3.4495e-06,-1.36e-06,0.0,0 STARLINK-4726,1 53802U 22111AF  22287.58334491 -.00000136  00000-0  34495-5 0  9994,2 53802  53.2168 101.1811 0001300  86.9166 310.8118 15.73203846  1303,6727.884,91.533,350.624,348.875,0.0
53802.0,STARLINK-4726,PAYLOAD,2022-10-14 22:00:00,15.73199941,0.0001319,53.2174,99.534,81.6662,44.9964,6.0596e-05,7.892e-05,0.0,0 STARLINK-4726,1 53802U 22111AF  22287.91667824  .00007892  00000-0  60596-4 0  9995,2 53802  53.2174  99.5340 0001319  81.6662  44.9964 15.73199941  5241,6727.895,91.533,350.648,348.87300000000016,0.0
53802.0,STARLINK-4726,PAYLOAD,2022-10-15 14:00:01,15.73231388,0.0001281,53.215,96.2303,71.8526,232.7359,-0.00062932,-0.00088139,0.0,0 STARLINK-4726,1 53802U 22111AF  22288.58334491 -.00088139  00000-0 -62932-3 0  9990,2 53802  53.2150  96.2303 0001281  71.8526 232.7359 15.73231388  1306,6727.806,91.531,350.533,348.809,0.0
53802.0,STARLINK-4726,PAYLOAD,2022-10-15 22:00:01,15.73131314,0.0001295,53.2141,94.582,58.3762,335.2228,0.00095957,0.00135847,0.0,0 STARLINK-4726,1 53802U 22111AF  22288.91668981  .00135847  00000-0  95957-3 0  9991,2 53802  53.2141  94.5820 0001295  58.3762 335.2228 15.73131314  5405,6728.090999999999,91.537,350.827,349.085,0.0
53802.0,STARLINK-4726,PAYLOAD,2022-10-16 06:00:00,15.73229716,0.0001024,53.214,92.9307,63.4072,59.0237,-5.1525e-05,-7.853e-05,0.0,0 STARLINK-4726,1 53802U 22111AF  22289.25001157 -.00007853  00000-0 -51525-4 0  9996,2 53802  53.2140  92.9307 0001024  63.4072  59.0237 15.73229716  5457,6727.81,91.531,350.36400000000015,348.987,0.0
53802.0,STARLINK-4726,PAYLOAD,2022-10-16 14:00:01,15.73223077,0.0001139,53.2144,91.2816,61.8451,149.5417,-0.00026463,-0.00037629,0.0,0 STARLINK-4726,1 53802U 22111AF  22289.58334491 -.00037629  00000-0 -26463-3 0  9998,2 53802  53.2144  91.2816 0001139  61.8451 149.5417 15.73223077  1307,6727.829000000002,91.532,350.461,348.92800000000005,0.0
53802.0,STARLINK-4726,PAYLOAD,2022-10-16 22:00:00,15.73151445,0.0001416999999999,53.2144,89.6336,54.3689,245.9316,0.00029041,0.00040248,0.0,0 STARLINK-4726,1 53802U 22111AF  22289.91667824  .00040248  00000-0  29041-3 0  9998,2 53802  53.2144  89.6336 0001417  54.3689 245.9316 15.73151445  1302,6728.034000000002,91.536,350.852,348.945,0.0
53802.0,STARLINK-4726,PAYLOAD,2022-10-17 14:00:01,15.73241884,0.0001598,53.2152,86.3335,61.5751,56.5847,-0.00012779,-0.00018548,0.0,0 STARLINK-4726,1 53802U 22111AF  22290.58334491 -.00018548  00000-0 -12779-3 0  9994,2 53802  53.2152  86.3335 0001598  61.5751  56.5847 15.73241884  5669,6727.776,91.531,350.716,348.566,0.0
53802.0,STARLINK-4726,PAYLOAD,2022-10-17 22:00:00,15.73143992,0.0001806,53.2139,84.6852,65.3385,141.6082,0.00096941,0.00137348,0.0,0 STARLINK-4726,1 53802U 22111AF  22290.91667824  .00137348  00000-0  96941-3 0  9991,2 53802  53.2139  84.6852 0001806  65.3385 141.6082 15.73143992  1301,6728.055,91.536,351.135,348.705,0.0
53802.0,STARLINK-4726,PAYLOAD,2022-10-18 14:00:01,15.73296624,0.000149,53.2142,81.3848,66.7566,318.0918,-0.00055001,-0.00077424,0.0,0 STARLINK-4726,1 53802U 22111AF  22291.58334491 -.00077424  00000-0 -55001-3 0  9998,2 53802  53.2142  81.3848 0001490  66.7566 318.0918 15.73296624  5829,6727.62,91.528,350.487,348.482,0.0
53802.0,STARLINK-4726,PAYLOAD,2022-10-18 22:00:00,15.73203262,0.0001398,53.2172,79.7391,56.6269,57.2457,1.9048e-05,2.054e-05,0.0,0 STARLINK-4726,1 53802U 22111AF  22291.91667824  .00002054  00000-0  19048-4 0  9991,2 53802  53.2172  79.7391 0001398  56.6269  57.2457 15.73203262  1306,6727.886,91.533,350.691,348.81,0.0
53802.0,STARLINK-4726,PAYLOAD,2022-10-19 06:00:00,15.73189499,0.0001259,53.2144,78.0843,55.5575,147.2907,-0.00010193,-0.00014893,0.0,0 STARLINK-4726,1 53802U 22111AF  22292.25001157 -.00014893  00000-0 -10193-3 0  9997,2 53802  53.2144  78.0843 0001259  55.5575 147.2907 15.73189499  5931,6727.925,91.534,350.63699999999994,348.9430000000001,0.0
53802.0,STARLINK-4726,PAYLOAD,2022-10-19 14:00:01,15.73182282,0.0001374,53.2143,76.4358,51.2072,240.551,0.00028809,0.00039973,0.0,0 STARLINK-4726,1 53802U 22111AF  22292.58334491  .00039973  00000-0  28809-3 0  9990,2 53802  53.2143  76.4358 0001374  51.2072 240.5510 15.73182282  1303,6727.946,91.534,350.735,348.886,0.0
53802.0,STARLINK-4726,PAYLOAD,2022-10-19 22:00:00,15.73277658,0.0001496,53.2157,74.7893,48.71100000000001,331.968,-0.0011312,-0.00156975,0.0,0 STARLINK-4726,1 53802U 22111AF  22292.91667824 -.00156975  00000-0 -11312-2 0  9990,2 53802  53.2157  74.7893 0001496  48.7110 331.9680 15.73277658  1307,6727.674,91.529,350.545,348.532,0.0
53802.0,STARLINK-4726,PAYLOAD,2022-10-20 06:00:00,15.73203775,0.000136,53.2138,73.1354,54.2247,55.425,0.00022513,0.00031097,0.0,0 STARLINK-4726,1 53802U 22111AF  22293.25001157  .00031097  00000-0  22513-3 0  9990,2 53802  53.2138  73.1354 0001360  54.2247  55.4250 15.73203775  6084,6727.884,91.533,350.664,348.834,0.0
53802.0,STARLINK-4726,PAYLOAD,2022-10-20 14:00:01,15.73210427,0.0001361,53.2141,71.487,45.6626,152.9215,-9.1947e-05,-0.00013509,0.0,0 STARLINK-4726,1 53802U 22111AF  22293.58334491 -.00013509  00000-0 -91947-4 0  9994,2 53802  53.2141  71.4870 0001361  45.6626 152.9215 15.73210427  1304,6727.865,91.533,350.646,348.815,0.0
53802.0,STARLINK-4726,PAYLOAD,2022-10-20 22:00:00,15.73188674,0.0001445,53.215,69.8398,33.6647,253.8565,0.00016231,0.00022208,0.0,0 STARLINK-4726,1 53802U 22111AF  22293.91667824  .00022208  00000-0  16231-3 0  9996,2 53802  53.2150  69.8398 0001445  33.6647 253.8565 15.73188674  1300,6727.927,91.534,350.765,348.82,0.0
53802.0,STARLINK-4726,PAYLOAD,2022-10-21 14:00:01,15.73120533,0.0001699,53.2153,66.5391,44.7892,60.5918,0.00068728,0.00096622,0.0,0 STARLINK-4726,1 53802U 22111AF  22294.58334491  .00096622  00000-0  68728-3 0  9990,2 53802  53.2153  66.5391 0001699  44.7892  60.5918 15.73120533  1301,6728.121999999999,91.538,351.13,348.844,0.0
53802.0,STARLINK-4726,PAYLOAD,2022-10-21 22:00:00,15.732548800000002,0.000171,53.2139,64.8889,38.1098,156.1282,-7.1505e-05,-0.00010668,0.0,0 STARLINK-4726,1 53802U 22111AF  22294.91667824 -.00010668  00000-0 -71505-4 0  9992,2 53802  53.2139  64.8889 0001710  38.1098 156.1282 15.73254880  6356,6727.739000000001,91.53,350.754,348.45300000000015,0.0
53802.0,STARLINK-4726,PAYLOAD,2022-10-22 14:00:01,15.73218307,0.0001636,53.2144,61.5892,35.8189,336.3676,-0.00042472,-0.00059853,0.0,0 STARLINK-4726,1 53802U 22111AF  22295.58334491 -.00059853  00000-0 -42472-3 0  9996,2 53802  53.2144  61.5892 0001636  35.8189 336.3676 15.73218307  1305,6727.843000000003,91.532,350.809,348.607,0.0
53802.0,STARLINK-4726,PAYLOAD,2022-10-22 22:00:00,15.73242766,0.0001834,53.2145,59.9397,30.9657,70.1533,-0.00023999,-0.00034229,0.0,0 STARLINK-4726,1 53802U 22111AF  22295.91667824 -.00034229  00000-0 -23999-3 0  9995,2 53802  53.2145  59.9397 0001834  30.9657  70.1533 15.73242766  1304,6727.773,91.531,350.872,348.404,0.0
